[{"OBJECT_NAME":"STARLINK-5741","OBJECT_ID":"2023-020P","EPOCH":"2026-03-08T05:01:06.379968","MEAN_MOTION":15.02536384,"ECCENTRICITY":0.00013508,"INCLINATION":43.0063,"RA_OF_ASC_NODE":359.9666,"ARG_OF_PERICENTER":260.7188,"MEAN_ANOMALY":99.3502,"EPHEMERIS_TYPE":0,"CLASSIFICATION_TYPE":"U","NORAD_CAT_ID":55582,"ELEMENT_SET_NO":999,"REV_AT_EPOCH":16884,"BSTAR":3.1944319e-5,"MEAN_MOTION_DOT":2.28e-6,"MEAN_MOTION_DDOT":0},{"OBJECT_NAME":"THE ARAB SATELLITE 813","OBJECT_ID":"2025-292B","EPOCH":"2026-03-09T21:37:26.354208","MEAN_MOTION":15.05594469,"ECCENTRICITY":0.00142186,"INCLINATION":97.6379,"RA_OF_ASC_NODE":145.6178,"ARG_OF_PERICENTER":341.4344,"MEAN_ANOMALY":18.6363,"EPHEMERIS_TYPE":0,"CLASSIFICATION_TYPE":"U","NORAD_CAT_ID":66994,"ELEMENT_SET_NO":999,"REV_AT_EPOCH":1350,"BSTAR":0.00043840303,"MEAN_MOTION_DOT":6.274e-5,"MEAN_MOTION_DDOT":0}]
